{"type": "FeatureCollection", "features": [ {"type": "Feature", "properties": {"norad_id": 34685, "name": "COSMOS 2251 DEB", "group": "cosmos-2251-debris", "lat": 47.23734224658287, "lon": -72.16602935569493, "alt_km": 698.1955981468118, "timestamp": "2025-12-24T18:55:56.466834+00:00", "meta": {"OBJECT_NAME": "COSMOS 2251 DEB", "OBJECT_ID": "1993-036YF", "EPOCH": "2025-12-24T02:40:25.828320", "MEAN_MOTION": 14.57603922, "ECCENTRICITY": 0.00142084, "INCLINATION": 74.0299, "RA_OF_ASC_NODE": 127.1601, "ARG_OF_PERICENTER": 232.1356, "MEAN_ANOMALY": 304.844, "EPHEMERIS_TYPE": 0, "CLASSIFICATION_TYPE": "U", "NORAD_CAT_ID": 34685, "ELEMENT_SET_NO": 999, "REV_AT_EPOCH": 88697, "BSTAR": 0.0011246786, "MEAN_MOTION_DOT": 5.105e-05, "MEAN_MOTION_DDOT": 0}, "tle": {"line1": "1 34685U 93036YF  25358.11141005  .00005105  00000+0  11247-2 0  9990", "line2": "2 34685  74.0299 127.1601 0014208 232.1356 304.8440 14.57603922886974"}}, "geometry": {"type": "Point", "coordinates": [-72.16602935569493, 47.23734224658287]}}, {"type": "Feature", "properties": {"norad_id": 34689, "name": "COSMOS 2251 DEB", "group": "cosmos-2251-debris", "lat": -10.874099216304302, "lon": 25.582635911289096, "alt_km": 841.986981713364, "timestamp": "2025-12-24T18:55:56.466845+00:00", "meta": {"OBJECT_NAME": "COSMOS 2251 DEB", "OBJECT_ID": "1993-036YK", "EPOCH": "2025-12-15T15:20:16.539648", "MEAN_MOTION": 14.04491905, "ECCENTRICITY": 0.02275051, "INCLINATION": 74.0901, "RA_OF_ASC_NODE": 218.3502, "ARG_OF_PERICENTER": 286.6099, "MEAN_ANOMALY": 101.262, "EPHEMERIS_TYPE": 0, "CLASSIFICATION_TYPE": "U", "NORAD_CAT_ID": 34689, "ELEMENT_SET_NO": 999, "REV_AT_EPOCH": 84382, "BSTAR": 0.0020174062, "MEAN_MOTION_DOT": 4.031e-05, "MEAN_MOTION_DDOT": 0}, "tle": {"line1": "1 34689U 93036YK  25349.63908032  .00004031  00000+0  20174-2 0  9998", "line2": "2 34689  74.0901 218.3502 0227505 286.6099 101.2620 14.04491905843829"}}, "geometry": {"type": "Point", "coordinates": [25.582635911289096, -10.874099216304302]}}, {"type": "Feature", "properties": {"norad_id": 34721, "name": "COSMOS 2251 DEB", "group": "cosmos-2251-debris", "lat": -67.20883457260219, "lon": 168.68642068537505, "alt_km": 752.2752471788745, "timestamp": "2025-12-24T18:55:56.466855+00:00", "meta": {"OBJECT_NAME": "COSMOS 2251 DEB", "OBJECT_ID": "1993-036YP", "EPOCH": "2025-12-23T08:06:44.057952", "MEAN_MOTION": 13.96892285, "ECCENTRICITY": 0.0222857, "INCLINATION": 73.9221, "RA_OF_ASC_NODE": 307.8595, "ARG_OF_PERICENTER": 244.8639, "MEAN_ANOMALY": 275.037, "EPHEMERIS_TYPE": 0, "CLASSIFICATION_TYPE": "U", "NORAD_CAT_ID": 34721, "ELEMENT_SET_NO": 999, "REV_AT_EPOCH": 85297, "BSTAR": 0.0009996873, "MEAN_MOTION_DOT": 1.69e-05, "MEAN_MOTION_DDOT": 0}, "tle": {"line1": "1 34721U 93036YP  25357.33800993  .00001690  00000+0  99969-3 0  9995", "line2": "2 34721  73.9221 307.8595 0222857 244.8639 275.0370 13.96892285852970"}}, "geometry": {"type": "Point", "coordinates": [168.68642068537505, -67.20883457260219]}}, {"type": "Feature", "properties": {"norad_id": 34722, "name": "COSMOS 2251 DEB", "group": "cosmos-2251-debris", "lat": 49.487265405575734, "lon": -25.631882460962608, "alt_km": 967.5963722813094, "timestamp": "2025-12-24T18:55:56.466865+00:00", "meta": {"OBJECT_NAME": "COSMOS 2251 DEB", "OBJECT_ID": "1993-036YQ", "EPOCH": "2025-12-24T03:27:06.651936", "MEAN_MOTION": 14.11966328, "ECCENTRICITY": 0.01665205, "INCLINATION": 73.8735, "RA_OF_ASC_NODE": 315.7266, "ARG_OF_PERICENTER": 239.2863, "MEAN_ANOMALY": 135.4881, "EPHEMERIS_TYPE": 0, "CLASSIFICATION_TYPE": "U", "NORAD_CAT_ID": 34722, "ELEMENT_SET_NO": 999, "REV_AT_EPOCH": 86406, "BSTAR": 0.00062986617, "MEAN_MOTION_DOT": 1.286e-05, "MEAN_MOTION_DDOT": 0}, "tle": {"line1": "1 34722U 93036YQ  25358.14382699  .00001286  00000+0  62987-3 0  9995", "line2": "2 34722  73.8735 315.7266 0166520 239.2863 135.4881 14.11966328864061"}}, "geometry": {"type": "Point", "coordinates": [-25.631882460962608, 49.487265405575734]}}, {"type": "Feature", "properties": {"norad_id": 34726, "name": "COSMOS 2251 DEB", "group": "cosmos-2251-debris", "lat": -18.842482613397195, "lon": -42.27060480619507, "alt_km": 718.2551460548984, "timestamp": "2025-12-24T18:55:56.466876+00:00", "meta": {"OBJECT_NAME": "COSMOS 2251 DEB", "OBJECT_ID": "1993-036YU", "EPOCH": "2025-12-24T04:13:01.255872", "MEAN_MOTION": 14.59524729, "ECCENTRICITY": 0.00417122, "INCLINATION": 74.0282, "RA_OF_ASC_NODE": 324.5074, "ARG_OF_PERICENTER": 111.625, "MEAN_ANOMALY": 248.9367, "EPHEMERIS_TYPE": 0, "CLASSIFICATION_TYPE": "U", "NORAD_CAT_ID": 34726, "ELEMENT_SET_NO": 999, "REV_AT_EPOCH": 88669, "BSTAR": 0.00041571183, "MEAN_MOTION_DOT": 1.969e-05, "MEAN_MOTION_DDOT": 0}, "tle": {"line1": "1 34726U 93036YU  25358.17570898  .00001969  00000+0  41571-3 0  9996", "line2": "2 34726  74.0282 324.5074 0041712 111.6250 248.9367 14.59524729886697"}}, "geometry": {"type": "Point", "coordinates": [-42.27060480619507, -18.842482613397195]}}, {"type": "Feature", "properties": {"norad_id": 34728, "name": "COSMOS 2251 DEB", "group": "cosmos-2251-debris", "lat": -7.518816327420841, "lon": -133.81669438035698, "alt_km": 636.5416606382751, "timestamp": "2025-12-24T18:55:56.466886+00:00", "meta": {"OBJECT_NAME": "COSMOS 2251 DEB", "OBJECT_ID": "1993-036YW", "EPOCH": "2025-12-20T02:20:18.568032", "MEAN_MOTION": 14.70905998, "ECCENTRICITY": 0.00414013, "INCLINATION": 74.0163, "RA_OF_ASC_NODE": 237.4676, "ARG_OF_PERICENTER": 33.08, "MEAN_ANOMALY": 327.2947, "EPHEMERIS_TYPE": 0, "CLASSIFICATION_TYPE": "U", "NORAD_CAT_ID": 34728, "ELEMENT_SET_NO": 999, "REV_AT_EPOCH": 88908, "BSTAR": 0.00043281985, "MEAN_MOTION_DOT": 2.653e-05, "MEAN_MOTION_DDOT": 0}, "tle": {"line1": "1 34728U 93036YW  25354.09743713  .00002653  00000+0  43282-3 0  9995", "line2": "2 34728  74.0163 237.4676 0041401  33.0800 327.2947 14.70905998889085"}}, "geometry": {"type": "Point", "coordinates": [-133.81669438035698, -7.518816327420841]}}, {"type": "Feature", "properties": {"norad_id": 34729, "name": "COSMOS 2251 DEB", "group": "cosmos-2251-debris", "lat": 10.296589914839183, "lon": 151.57328913684515, "alt_km": 619.5076162765336, "timestamp": "2025-12-24T18:55:56.466897+00:00", "meta": {"OBJECT_NAME": "COSMOS 2251 DEB", "OBJECT_ID": "1993-036YX", "EPOCH": "2025-12-24T05:18:14.093280", "MEAN_MOTION": 14.83114289, "ECCENTRICITY": 0.00120023, "INCLINATION": 74.0186, "RA_OF_ASC_NODE": 335.6824, "ARG_OF_PERICENTER": 88.3709, "MEAN_ANOMALY": 290.0343, "EPHEMERIS_TYPE": 0, "CLASSIFICATION_TYPE": "U", "NORAD_CAT_ID": 34729, "ELEMENT_SET_NO": 999, "REV_AT_EPOCH": 88628, "BSTAR": 0.0022211559, "MEAN_MOTION_DOT": 0.00018141, "MEAN_MOTION_DDOT": 0}, "tle": {"line1": "1 34729U 93036YX  25358.22099645  .00018141  00000+0  22212-2 0  9991", "line2": "2 34729  74.0186 335.6824 0012002  88.3709 290.0343 14.83114289886288"}}, "geometry": {"type": "Point", "coordinates": [151.57328913684515, 10.296589914839183]}}, {"type": "Feature", "properties": {"norad_id": 34732, "name": "COSMOS 2251 DEB", "group": "cosmos-2251-debris", "lat": -64.45391440328795, "lon": 33.90858385160166, "alt_km": 731.8661793043993, "timestamp": "2025-12-24T18:55:56.466907+00:00", "meta": {"OBJECT_NAME": "COSMOS 2251 DEB", "OBJECT_ID": "1993-036ZA", "EPOCH": "2025-12-22T16:32:23.959680", "MEAN_MOTION": 14.47311087, "ECCENTRICITY": 0.00401751, "INCLINATION": 74.0456, "RA_OF_ASC_NODE": 74.5946, "ARG_OF_PERICENTER": 223.757, "MEAN_ANOMALY": 290.4905, "EPHEMERIS_TYPE": 0, "CLASSIFICATION_TYPE": "U", "NORAD_CAT_ID": 34732, "ELEMENT_SET_NO": 999, "REV_AT_EPOCH": 88287, "BSTAR": 0.00012395205, "MEAN_MOTION_DOT": 4.3e-06, "MEAN_MOTION_DDOT": 0}, "tle": {"line1": "1 34732U 93036ZA  25356.68916620  .00000430  00000+0  12395-3 0  9998", "line2": "2 34732  74.0456  74.5946 0040175 223.7570 290.4905 14.47311087882873"}}, "geometry": {"type": "Point", "coordinates": [33.90858385160166, -64.45391440328795]}}, {"type": "Feature", "properties": {"norad_id": 34736, "name": "COSMOS 2251 DEB", "group": "cosmos-2251-debris", "lat": -46.6825826284249, "lon": -8.101773308562906, "alt_km": 389.7369757524202, "timestamp": "2025-12-24T18:55:56.466917+00:00", "meta": {"OBJECT_NAME": "COSMOS 2251 DEB", "OBJECT_ID": "1993-036ZE", "EPOCH": "2025-12-24T02:11:47.071392", "MEAN_MOTION": 15.58131671, "ECCENTRICITY": 0.00117758, "INCLINATION": 73.9978, "RA_OF_ASC_NODE": 11.1707, "ARG_OF_PERICENTER": 338.3861, "MEAN_ANOMALY": 21.6858, "EPHEMERIS_TYPE": 0, "CLASSIFICATION_TYPE": "U", "NORAD_CAT_ID": 34736, "ELEMENT_SET_NO": 999, "REV_AT_EPOCH": 88624, "BSTAR": 0.0082483738, "MEAN_MOTION_DOT": 0.00677638, "MEAN_MOTION_DDOT": 0}, "tle": {"line1": "1 34736U 93036ZE  25358.09151703  .00677638  00000+0  82484-2 0  9997", "line2": "2 34736  73.9978  11.1707 0011775 338.3861  21.6858 15.58131671886244"}}, "geometry": {"type": "Point", "coordinates": [-8.101773308562906, -46.6825826284249]}}, {"type": "Feature", "properties": {"norad_id": 34738, "name": "COSMOS 2251 DEB", "group": "cosmos-2251-debris", "lat": -71.56895729996066, "lon": 61.417984126075424, "alt_km": 711.8303310023166, "timestamp": "2025-12-24T18:55:56.466927+00:00", "meta": {"OBJECT_NAME": "COSMOS 2251 DEB", "OBJECT_ID": "1993-036ZG", "EPOCH": "2025-12-23T18:44:43.283328", "MEAN_MOTION": 14.4632643, "ECCENTRICITY": 0.00475663, "INCLINATION": 74.0156, "RA_OF_ASC_NODE": 122.6297, "ARG_OF_PERICENTER": 266.8783, "MEAN_ANOMALY": 167.0667, "EPHEMERIS_TYPE": 0, "CLASSIFICATION_TYPE": "U", "NORAD_CAT_ID": 34738, "ELEMENT_SET_NO": 999, "REV_AT_EPOCH": 88018, "BSTAR": 0.00030074639, "MEAN_MOTION_DOT": 1.066e-05, "MEAN_MOTION_DDOT": 0}, "tle": {"line1": "1 34738U 93036ZG  25357.78105652  .00001066  00000+0  30075-3 0  9992", "line2": "2 34738  74.0156 122.6297 0047566 266.8783 167.0667 14.46326430880188"}}, "geometry": {"type": "Point", "coordinates": [61.417984126075424, -71.56895729996066]}}]}